SL-14 R/B               
1 21423U 91042B   26048.90502362  .00000377  00000+0  44733-4 0  9996
2 21423  82.4897 238.7384 0015856 309.5281  50.4531 14.81808703850146
ERS-1                   
1 21574U 91050A   26048.60854476  .00000288  00000+0  10706-3 0  9998
2 21574  98.7893  66.3380 0030871 261.5602  98.2085 14.39432624812845
ARIANE 40 R/B           
1 21610U 91050F   26048.70725288  .00000266  00000+0  92126-4 0  9991
2 21610  98.2056 101.6895 0004192 124.6439 235.5147 14.42878256816118
INTERCOSMOS 25          
1 21819U 91086A   26048.76074860  .00000978  00000+0  18670-3 0  9991
2 21819  82.6084 322.0509 1486969 159.8625 206.8133 12.11943007494278
SL-8 R/B                
1 21876U 92008B   26048.72480848  .00000061  00000+0  47132-4 0  9991
2 21876  82.9249 282.6321 0034385 188.3263 233.6892 13.75970122706674
SL-8 R/B                
1 21938U 92020B   26048.77157491  .00000089  00000+0  76388-4 0  9999
2 21938  82.9339 168.5450 0028675 356.1155 114.1074 13.75546740698397
USA 81                  
1 21949U 92023A   26048.74930207  .00000194  00000+0  64268-4 0  9996
2 21949  85.0116 142.9402 0002752  95.5722 264.5785 14.32360584 91931
COSMOS 2219             
1 22219U 92076A   26048.43130847  .00000220  00000+0  13990-3 0  9998
2 22219  71.0582  60.4189 0019929 234.3629 125.5638 14.14078645715517
SL-16 R/B               
1 22220U 92076B   26048.79381978 -.00000151  00000+0 -51414-4 0  9991
2 22220  70.9976 230.2830 0011145 132.9142 320.8267 14.16854811719015
COSMOS 2221             
1 22236U 92080A   26048.77410563  .00001809  00000+0  15837-3 0  9991
2 22236  82.5043 298.1566 0012800 259.6562 100.3217 14.96120941777813
SL-16 R/B               
1 22285U 92093B   26048.38650598  .00000310  00000+0  18321-3 0  9997
2 22285  71.0208  46.8874 0005490 315.8444  44.2240 14.15444178710286
COSMOS 2228             
1 22286U 92094A   26048.87035805  .00001843  00000+0  15709-3 0  9990
2 22286  82.5147 256.2902 0018376  13.2432 346.9269 14.97092123773098
