CCSDS_OMM_VERS = 2.0
CREATION_DATE  = 
ORIGINATOR     = 

OBJECT_NAME    = SL-14 R/B
OBJECT_ID      = 1991-042B
CENTER_NAME    = EARTH
REF_FRAME      = TEME
TIME_SYSTEM    = UTC
MEAN_ELEMENT_THEORY = SGP/SGP4

EPOCH          = 2026-02-17T21:43:14.040768
MEAN_MOTION    = 14.81808703
ECCENTRICITY   = .00158568
INCLINATION    = 82.4897
RA_OF_ASC_NODE = 238.7384
ARG_OF_PERICENTER = 309.5281
MEAN_ANOMALY   = 50.4531

EPHEMERIS_TYPE = 0
CLASSIFICATION_TYPE = U
NORAD_CAT_ID   = 21423
ELEMENT_SET_NO = 999
REV_AT_EPOCH   = 85014
BSTAR          = .44733442E-4
MEAN_MOTION_DOT = .377E-5
MEAN_MOTION_DDOT = 0

CCSDS_OMM_VERS = 2.0
CREATION_DATE  = 
ORIGINATOR     = 

OBJECT_NAME    = ERS-1
OBJECT_ID      = 1991-050A
CENTER_NAME    = EARTH
REF_FRAME      = TEME
TIME_SYSTEM    = UTC
MEAN_ELEMENT_THEORY = SGP/SGP4

EPOCH          = 2026-02-17T14:36:18.267264
MEAN_MOTION    = 14.39432624
ECCENTRICITY   = .00308716
INCLINATION    = 98.7893
RA_OF_ASC_NODE = 66.3380
ARG_OF_PERICENTER = 261.5602
MEAN_ANOMALY   = 98.2085

EPHEMERIS_TYPE = 0
CLASSIFICATION_TYPE = U
NORAD_CAT_ID   = 21574
ELEMENT_SET_NO = 999
REV_AT_EPOCH   = 81284
BSTAR          = .1070588E-3
MEAN_MOTION_DOT = .288E-5
MEAN_MOTION_DDOT = 0

CCSDS_OMM_VERS = 2.0
CREATION_DATE  = 
ORIGINATOR     = 

OBJECT_NAME    = ARIANE 40 R/B
OBJECT_ID      = 1991-050F
CENTER_NAME    = EARTH
REF_FRAME      = TEME
TIME_SYSTEM    = UTC
MEAN_ELEMENT_THEORY = SGP/SGP4

EPOCH          = 2026-02-17T16:58:26.648832
MEAN_MOTION    = 14.42878256
ECCENTRICITY   = .00041922
INCLINATION    = 98.2056
RA_OF_ASC_NODE = 101.6895
ARG_OF_PERICENTER = 124.6439
MEAN_ANOMALY   = 235.5147

EPHEMERIS_TYPE = 0
CLASSIFICATION_TYPE = U
NORAD_CAT_ID   = 21610
ELEMENT_SET_NO = 999
REV_AT_EPOCH   = 81611
BSTAR          = .92125537E-4
MEAN_MOTION_DOT = .266E-5
MEAN_MOTION_DDOT = 0

CCSDS_OMM_VERS = 2.0
CREATION_DATE  = 
ORIGINATOR     = 

OBJECT_NAME    = INTERCOSMOS 25
OBJECT_ID      = 1991-086A
CENTER_NAME    = EARTH
REF_FRAME      = TEME
TIME_SYSTEM    = UTC
MEAN_ELEMENT_THEORY = SGP/SGP4

EPOCH          = 2026-02-17T18:15:28.679040
MEAN_MOTION    = 12.11943007
ECCENTRICITY   = .14869692
INCLINATION    = 82.6084
RA_OF_ASC_NODE = 322.0509
ARG_OF_PERICENTER = 159.8625
MEAN_ANOMALY   = 206.8133

EPHEMERIS_TYPE = 0
CLASSIFICATION_TYPE = U
NORAD_CAT_ID   = 21819
ELEMENT_SET_NO = 999
REV_AT_EPOCH   = 49427
BSTAR          = .1867018E-3
MEAN_MOTION_DOT = .978E-5
MEAN_MOTION_DDOT = 0

CCSDS_OMM_VERS = 2.0
CREATION_DATE  = 
ORIGINATOR     = 

OBJECT_NAME    = SL-8 R/B
OBJECT_ID      = 1992-008B
CENTER_NAME    = EARTH
REF_FRAME      = TEME
TIME_SYSTEM    = UTC
MEAN_ELEMENT_THEORY = SGP/SGP4

EPOCH          = 2026-02-17T17:23:43.452672
MEAN_MOTION    = 13.75970122
ECCENTRICITY   = .00343859
INCLINATION    = 82.9249
RA_OF_ASC_NODE = 282.6321
ARG_OF_PERICENTER = 188.3263
MEAN_ANOMALY   = 233.6892

EPHEMERIS_TYPE = 0
CLASSIFICATION_TYPE = U
NORAD_CAT_ID   = 21876
ELEMENT_SET_NO = 999
REV_AT_EPOCH   = 70667
BSTAR          = .47131648E-4
MEAN_MOTION_DOT = .61E-6
MEAN_MOTION_DDOT = 0

CCSDS_OMM_VERS = 2.0
CREATION_DATE  = 
ORIGINATOR     = 

OBJECT_NAME    = SL-8 R/B
OBJECT_ID      = 1992-020B
CENTER_NAME    = EARTH
REF_FRAME      = TEME
TIME_SYSTEM    = UTC
MEAN_ELEMENT_THEORY = SGP/SGP4

EPOCH          = 2026-02-17T18:31:04.072224
MEAN_MOTION    = 13.75546740
ECCENTRICITY   = .00286756
INCLINATION    = 82.9339
RA_OF_ASC_NODE = 168.5450
ARG_OF_PERICENTER = 356.1155
MEAN_ANOMALY   = 114.1074

EPHEMERIS_TYPE = 0
CLASSIFICATION_TYPE = U
NORAD_CAT_ID   = 21938
ELEMENT_SET_NO = 999
REV_AT_EPOCH   = 69839
BSTAR          = .7638781E-4
MEAN_MOTION_DOT = .89E-6
MEAN_MOTION_DDOT = 0

CCSDS_OMM_VERS = 2.0
CREATION_DATE  = 
ORIGINATOR     = 

OBJECT_NAME    = USA 81
OBJECT_ID      = 1992-023A
CENTER_NAME    = EARTH
REF_FRAME      = TEME
TIME_SYSTEM    = UTC
MEAN_ELEMENT_THEORY = SGP/SGP4

EPOCH          = 2026-02-17T17:58:59.698848
MEAN_MOTION    = 14.32360584
ECCENTRICITY   = .00027527
INCLINATION    = 85.0116
RA_OF_ASC_NODE = 142.9402
ARG_OF_PERICENTER = 95.5722
MEAN_ANOMALY   = 264.5785

EPHEMERIS_TYPE = 0
CLASSIFICATION_TYPE = U
NORAD_CAT_ID   = 21949
ELEMENT_SET_NO = 999
REV_AT_EPOCH   = 9193
BSTAR          = .64268324E-4
MEAN_MOTION_DOT = .194E-5
MEAN_MOTION_DDOT = 0

CCSDS_OMM_VERS = 2.0
CREATION_DATE  = 
ORIGINATOR     = 

OBJECT_NAME    = COSMOS 2219
OBJECT_ID      = 1992-076A
CENTER_NAME    = EARTH
REF_FRAME      = TEME
TIME_SYSTEM    = UTC
MEAN_ELEMENT_THEORY = SGP/SGP4

EPOCH          = 2026-02-17T10:21:05.051808
MEAN_MOTION    = 14.14078645
ECCENTRICITY   = .00199295
INCLINATION    = 71.0582
RA_OF_ASC_NODE = 60.4189
ARG_OF_PERICENTER = 234.3629
MEAN_ANOMALY   = 125.5638

EPHEMERIS_TYPE = 0
CLASSIFICATION_TYPE = U
NORAD_CAT_ID   = 22219
ELEMENT_SET_NO = 999
REV_AT_EPOCH   = 71551
BSTAR          = .13990305E-3
MEAN_MOTION_DOT = .22E-5
MEAN_MOTION_DDOT = 0

CCSDS_OMM_VERS = 2.0
CREATION_DATE  = 
ORIGINATOR     = 

OBJECT_NAME    = SL-16 R/B
OBJECT_ID      = 1992-076B
CENTER_NAME    = EARTH
REF_FRAME      = TEME
TIME_SYSTEM    = UTC
MEAN_ELEMENT_THEORY = SGP/SGP4

EPOCH          = 2026-02-17T19:03:06.028992
MEAN_MOTION    = 14.16854811
ECCENTRICITY   = .00111459
INCLINATION    = 70.9976
RA_OF_ASC_NODE = 230.2830
ARG_OF_PERICENTER = 132.9142
MEAN_ANOMALY   = 320.8267

EPHEMERIS_TYPE = 0
CLASSIFICATION_TYPE = U
NORAD_CAT_ID   = 22220
ELEMENT_SET_NO = 999
REV_AT_EPOCH   = 71901
BSTAR          = -.51413642E-4
MEAN_MOTION_DOT = -.151E-5
MEAN_MOTION_DDOT = 0

CCSDS_OMM_VERS = 2.0
CREATION_DATE  = 
ORIGINATOR     = 

OBJECT_NAME    = COSMOS 2221
OBJECT_ID      = 1992-080A
CENTER_NAME    = EARTH
REF_FRAME      = TEME
TIME_SYSTEM    = UTC
MEAN_ELEMENT_THEORY = SGP/SGP4

EPOCH          = 2026-02-17T18:34:42.726432
MEAN_MOTION    = 14.96120941
ECCENTRICITY   = .00128006
INCLINATION    = 82.5043
RA_OF_ASC_NODE = 298.1566
ARG_OF_PERICENTER = 259.6562
MEAN_ANOMALY   = 100.3217

EPHEMERIS_TYPE = 0
CLASSIFICATION_TYPE = U
NORAD_CAT_ID   = 22236
ELEMENT_SET_NO = 999
REV_AT_EPOCH   = 77781
BSTAR          = .15837202E-3
MEAN_MOTION_DOT = .1809E-4
MEAN_MOTION_DDOT = 0

CCSDS_OMM_VERS = 2.0
CREATION_DATE  = 
ORIGINATOR     = 

OBJECT_NAME    = SL-16 R/B
OBJECT_ID      = 1992-093B
CENTER_NAME    = EARTH
REF_FRAME      = TEME
TIME_SYSTEM    = UTC
MEAN_ELEMENT_THEORY = SGP/SGP4

EPOCH          = 2026-02-17T09:16:34.116672
MEAN_MOTION    = 14.15444178
ECCENTRICITY   = .00054909
INCLINATION    = 71.0208
RA_OF_ASC_NODE = 46.8874
ARG_OF_PERICENTER = 315.8444
MEAN_ANOMALY   = 44.2240

EPHEMERIS_TYPE = 0
CLASSIFICATION_TYPE = U
NORAD_CAT_ID   = 22285
ELEMENT_SET_NO = 999
REV_AT_EPOCH   = 71028
BSTAR          = .18321039E-3
MEAN_MOTION_DOT = .31E-5
MEAN_MOTION_DDOT = 0

CCSDS_OMM_VERS = 2.0
CREATION_DATE  = 
ORIGINATOR     = 

OBJECT_NAME    = COSMOS 2228
OBJECT_ID      = 1992-094A
CENTER_NAME    = EARTH
REF_FRAME      = TEME
TIME_SYSTEM    = UTC
MEAN_ELEMENT_THEORY = SGP/SGP4

EPOCH          = 2026-02-17T20:53:18.935520
MEAN_MOTION    = 14.97092123
ECCENTRICITY   = .00183767
INCLINATION    = 82.5147
RA_OF_ASC_NODE = 256.2902
ARG_OF_PERICENTER = 13.2432
MEAN_ANOMALY   = 346.9269

EPHEMERIS_TYPE = 0
CLASSIFICATION_TYPE = U
NORAD_CAT_ID   = 22286
ELEMENT_SET_NO = 999
REV_AT_EPOCH   = 77309
BSTAR          = .15709438E-3
MEAN_MOTION_DOT = .1843E-4
MEAN_MOTION_DDOT = 0

